NORAD_CAT_ID,OBJECT_NAME,OBJECT_TYPE,EPOCH,MEAN_MOTION,ECCENTRICITY,INCLINATION,RA_OF_ASC_NODE,ARG_OF_PERICENTER,MEAN_ANOMALY,BSTAR,MEAN_MOTION_DOT,MEAN_MOTION_DDOT,TLE_LINE0,TLE_LINE1,TLE_LINE2,SEMIMAJOR_AXIS,PERIOD,APOGEE,PERIGEE,DECAYED
53024.0,STARLINK-4289,PAYLOAD,2023-11-15 07:24:36,15.08839459,0.0001677,53.2186,279.1796,102.5783,257.5397,9.2908e-05,1.191e-05,0.0,0 STARLINK-4289,1 53024U 22076AQ  23319.30875469  .00001191  00000-0  92908-4 0  9995,2 53024  53.2186 279.1796 0001677 102.5783 257.5397 15.08839459 75360,6917.882,95.438,540.907,538.587,0.0
53024.0,STARLINK-4289,PAYLOAD,2023-11-16 04:04:37,15.08838838,0.0001726,53.219,275.3131,109.168,250.9499,0.00011033,1.468e-05,0.0,0 STARLINK-4289,1 53024U 22076AQ  23320.16987787  .00001468  00000-0  11033-3 0  9994,2 53024  53.2190 275.3131 0001726 109.1680 250.9499 15.08838838 75966,6917.884,95.438,540.943,538.555,0.0
53024.0,STARLINK-4289,PAYLOAD,2023-11-16 21:33:52,15.08839878,0.0001689,53.2186,272.0424,110.9789,249.1384,0.00016094,2.274e-05,0.0,0 STARLINK-4289,1 53024U 22076AQ  23320.89851922  .00002274  00000-0  16094-3 0  9993,2 53024  53.2186 272.0424 0001689 110.9789 249.1384 15.08839878 75607,6917.881,95.438,540.914,538.577,0.0
53024.0,STARLINK-4289,PAYLOAD,2023-11-17 03:55:25,15.0883149,0.0001531,53.2178,270.8556,90.8909,269.2259,0.00055619,8.573e-05,0.0,0 STARLINK-4289,1 53024U 22076AQ  23321.16348529  .00008573  00000-0  55619-3 0  9992,2 53024  53.2178 270.8556 0001531  90.8909 269.2259 15.08831490 76119,6917.906,95.438,540.831,538.712,0.0
53024.0,STARLINK-4289,PAYLOAD,2023-11-17 19:49:16,15.08839354,0.0001532,53.2186,267.885,94.8112,265.3055,0.00012693,1.733e-05,0.0,0 STARLINK-4289,1 53024U 22076AQ  23321.82588099  .00001733  00000-0  12693-3 0  9999,2 53024  53.2186 267.8850 0001532  94.8112 265.3055 15.08839354 75748,6917.882,95.438,540.807,538.688,0.0
53024.0,STARLINK-4289,PAYLOAD,2023-11-18 13:18:30,15.08844128,0.0001516,53.2182,264.6133,87.4667,272.6498,0.0001147,1.538e-05,0.0,0 STARLINK-4289,1 53024U 22076AQ  23322.55451868  .00001538  00000-0  11470-3 0  9998,2 53024  53.2182 264.6133 0001516  87.4667 272.6498 15.08844128 75857,6917.868,95.437,540.782,538.684,0.0
53024.0,STARLINK-4289,PAYLOAD,2023-11-19 13:09:17,15.08851149,0.0001692,53.2197,260.1514,84.175,275.9435,3.6349e-05,2.91e-06,0.0,0 STARLINK-4289,1 53024U 22076AQ  23323.54811651  .00000291  00000-0  36349-4 0  9996,2 53024  53.2197 260.1514 0001692  84.1750 275.9435 15.08851149 76005,6917.846,95.437,540.882,538.541,0.0
53024.0,STARLINK-4289,PAYLOAD,2023-11-19 19:30:50,15.0884355,0.0001796,53.2197,258.9629,82.4982,277.6214,0.00011024,1.467e-05,0.0,0 STARLINK-4289,1 53024U 22076AQ  23323.81308122  .00001467  00000-0  11024-3 0  9998,2 53024  53.2197 258.9629 0001796  82.4982 277.6214 15.08843550 76517,6917.87,95.437,540.977,538.492,0.0
53024.0,STARLINK-4289,PAYLOAD,2023-11-20 03:27:44,15.08867077,0.0001611,53.2186,257.4768,95.1897,264.9279,-0.00024759,-4.229e-05,0.0,0 STARLINK-4289,1 53024U 22076AQ  23324.14426877 -.00004229  00000-0 -24759-3 0  9993,2 53024  53.2186 257.4768 0001611  95.1897 264.9279 15.08867077 76560,6917.798,95.436,540.777,538.548,0.0
53024.0,STARLINK-4289,PAYLOAD,2023-11-20 05:03:08,15.08851028,0.0001601,53.2193,257.1774,85.195,274.9225,0.00014432,2.01e-05,0.0,0 STARLINK-4289,1 53024U 22076AQ  23324.21051430  .00002010  00000-0  14432-3 0  9991,2 53024  53.2193 257.1774 0001601  85.1950 274.9225 15.08851028 76572,6917.847,95.437,540.819,538.604,0.0
53024.0,STARLINK-4289,PAYLOAD,2023-11-20 13:00:04,15.08846053,0.0001577,53.2204,255.6918,87.8841,272.2331,9.7821e-05,1.269e-05,0.0,0 STARLINK-4289,1 53024U 22076AQ  23324.54171748  .00001269  00000-0  97821-4 0  9991,2 53024  53.2204 255.6918 0001577  87.8841 272.2331 15.08846053 76153,6917.862,95.437,540.818,538.636,0.0
53024.0,STARLINK-4289,PAYLOAD,2023-11-21 04:53:55,15.0885131,0.000148,53.2181,252.7167,89.1974,270.9188,0.00011264,1.506e-05,0.0,0 STARLINK-4289,1 53024U 22076AQ  23325.20411173  .00001506  00000-0  11264-3 0  9994,2 53024  53.2181 252.7167 0001480  89.1974 270.9188 15.08851310 76254,6917.846,95.437,540.735,538.687,0.0
53024.0,STARLINK-4289,PAYLOAD,2023-11-21 19:12:24,15.08837371,0.000169,53.2169,250.0424,86.0778,274.0407,5.2447e-05,5.47e-06,0.0,0 STARLINK-4289,1 53024U 22076AQ  23325.80028150  .00000547  00000-0  52447-4 0  9992,2 53024  53.2169 250.0424 0001690  86.0778 274.0407 15.08837371 76810,6917.888,95.438,540.923,538.584,0.0
53024.0,STARLINK-4289,PAYLOAD,2023-11-22 01:33:56,15.08845929,0.0001508,53.2177,248.8518,92.1924,267.9241,0.00011266,1.506e-05,0.0,0 STARLINK-4289,1 53024U 22076AQ  23326.06523725  .00001506  00000-0  11266-3 0  9998,2 53024  53.2177 248.8518 0001508  92.1924 267.9241 15.08845929 76856,6917.862,95.437,540.77,538.684,0.0
53024.0,STARLINK-4289,PAYLOAD,2023-11-22 19:03:10,15.08850083,0.0001347,53.2179,245.5824,87.1716,272.943,0.00027905,4.157e-05,0.0,0 STARLINK-4289,1 53024U 22076AQ  23326.79387515  .00004157  00000-0  27905-3 0  9995,2 53024  53.2179 245.5824 0001347  87.1716 272.9430 15.08850083 76499,6917.85,95.437,540.646,538.783,0.0
53024.0,STARLINK-4289,PAYLOAD,2023-11-23 01:24:43,15.08859441,0.0001533,53.2178,244.393,90.1954,269.9214,0.00041808,6.376e-05,0.0,0 STARLINK-4289,1 53024U 22076AQ  23327.05883162  .00006376  00000-0  41808-3 0  9997,2 53024  53.2178 244.3930 0001533  90.1954 269.9214 15.08859441 77009,6917.821,95.436,540.746,538.625,0.0
53024.0,STARLINK-4289,PAYLOAD,2023-11-23 22:04:44,15.0883431,0.0001526,53.2183,240.5285,104.5843,255.5318,-2.0513e-05,-6.14e-06,0.0,0 STARLINK-4289,1 53024U 22076AQ  23327.91996301 -.00000614  00000-0 -20513-4 0  9994,2 53024  53.2183 240.5285 0001526 104.5843 255.5318 15.08834310 76660,6917.898,95.438,540.818,538.707,0.0
53024.0,STARLINK-4289,PAYLOAD,2023-11-24 01:15:31,15.08829633,0.0001433,53.218,239.9334,99.9824,260.133,-8.5131e-05,-1.642e-05,0.0,0 STARLINK-4289,1 53024U 22076AQ  23328.05244455 -.00001642  00000-0 -85131-4 0  9995,2 53024  53.2180 239.9334 0001433  99.9824 260.1330 15.08829633 77150,6917.912,95.438,540.768,538.786,0.0
53024.0,STARLINK-4289,PAYLOAD,2023-11-24 04:26:17,15.08830675,0.000138,53.2176,239.3367,96.4033,263.7116,4.3356e-05,4.02e-06,0.0,0 STARLINK-4289,1 53024U 22076AQ  23328.18492558  .00000402  00000-0  43356-4 0  9992,2 53024  53.2176 239.3367 0001380  96.4033 263.7116 15.08830675 76709,6917.909,95.438,540.729,538.819,0.0
53024.0,STARLINK-4289,PAYLOAD,2023-11-24 21:55:32,15.0883828,0.0001322,53.217,236.0651,78.6056,281.5085,0.00028472,4.246e-05,0.0,0 STARLINK-4289,1 53024U 22076AQ  23328.91356982  .00004246  00000-0  28472-3 0  9994,2 53024  53.2170 236.0651 0001322  78.6056 281.5085 15.08838280 76811,6917.886,95.438,540.665,538.836,0.0
53024.0,STARLINK-4289,PAYLOAD,2023-11-24 23:30:54,15.08849425,0.0001449,53.2176,235.7668,100.4378,259.6778,0.00059315,9.167e-05,0.0,0 STARLINK-4289,1 53024U 22076AQ  23328.97980253  .00009167  00000-0  59315-3 0  9991,2 53024  53.2176 235.7668 0001449 100.4378 259.6778 15.08849425 77293,6917.852,95.437,540.719,538.714,0.0
53024.0,STARLINK-4289,PAYLOAD,2023-11-25 21:46:18,15.08869662,0.0001365,53.217,231.6044,88.0108,272.104,0.00085668,0.00013383,0.0,0 STARLINK-4289,1 53024U 22076AQ  23329.90715936  .00013383  00000-0  85668-3 0  9994,2 53024  53.2170 231.6044 0001365  88.0108 272.1040 15.08869662 76969,6917.79,95.436,540.599,538.71,0.0
53024.0,STARLINK-4289,PAYLOAD,2023-11-26 02:32:27,15.08895251,0.0001487,53.2165,230.712,76.8222,283.2936,0.0017728,0.00028082,0.0,0 STARLINK-4289,1 53024U 22076AQ  23330.10587309  .00028082  00000-0  17728-2 0  9992,2 53024  53.2165 230.7120 0001487  76.8222 283.2936 15.08895251 77461,6917.712,95.434,540.605,538.548,0.0
53024.0,STARLINK-4289,PAYLOAD,2023-11-26 21:37:06,15.08826953,0.0001306,53.2167,227.1452,86.4534,273.6607,-0.00020077,-3.481e-05,0.0,0 STARLINK-4289,1 53024U 22076AQ  23330.90076712 -.00003481  00000-0 -20077-3 0  9991,2 53024  53.2167 227.1452 0001306  86.4534 273.6607 15.08826953 77117,6917.92,95.438,540.689,538.882,0.0
53024.0,STARLINK-4289,PAYLOAD,2023-11-27 02:23:15,15.08821374,0.0001405,53.2164,226.2529,103.2592,256.8557,-0.00014468,-2.589e-05,0.0,0 STARLINK-4289,1 53024U 22076AQ  23331.09948983 -.00002589  00000-0 -14468-3 0  9995,2 53024  53.2164 226.2529 0001405 103.2592 256.8557 15.08821374 77615,6917.937,95.439,540.774,538.83,0.0
53024.0,STARLINK-4289,PAYLOAD,2023-11-27 05:34:02,15.08831022,0.0001333,53.2159,225.6596,103.3279,256.7862,1.3745e-05,-6.9e-07,0.0,0 STARLINK-4289,1 53024U 22076AQ  23331.23196952 -.00000069  00000-0  13745-4 0  9990,2 53024  53.2159 225.6596 0001333 103.3279 256.7862 15.08831022 77168,6917.908,95.438,540.695,538.851,0.0
53024.0,STARLINK-4289,PAYLOAD,2023-11-27 21:27:54,15.08836218,0.0001353,53.2152,222.6868,102.5281,257.5863,0.00058555,9.042e-05,0.0,0 STARLINK-4289,1 53024U 22076AQ  23331.89437593  .00009042  00000-0  58555-3 0  9997,2 53024  53.2152 222.6868 0001353 102.5281 257.5863 15.08836218 77269,6917.892,95.438,540.693,538.821,0.0
53024.0,STARLINK-4289,PAYLOAD,2023-11-28 00:38:40,15.08845099,0.000155,53.2169,222.0918,98.3992,261.7176,0.00098179,0.00015374,0.0,0 STARLINK-4289,1 53024U 22076AQ  23332.02685575  .00015374  00000-0  98179-3 0  9999,2 53024  53.2169 222.0918 0001550  98.3992 261.7176 15.08845099 77752,6917.865,95.437,540.802,538.658,0.0
53024.0,STARLINK-4289,PAYLOAD,2023-11-28 16:32:31,15.08851279,0.0001904,53.2167,219.1214,79.4073,280.7133,0.00078784,0.00012277,0.0,0 STARLINK-4289,1 53024U 22076AQ  23332.68925407  .00012277  00000-0  78784-3 0  9991,2 53024  53.2167 219.1214 0001904  79.4073 280.7133 15.08851279 77851,6917.846,95.437,541.028,538.394,0.0
53024.0,STARLINK-4289,PAYLOAD,2023-11-28 22:54:03,15.08860162,0.0001496,53.2158,217.9268,101.9541,258.1618,0.00051189,7.873e-05,0.0,0 STARLINK-4289,1 53024U 22076AQ  23332.95420922  .00007873  00000-0  51189-3 0  9999,2 53024  53.2158 217.9268 0001496 101.9541 258.1618 15.08860162 77424,6917.819,95.436,540.719,538.649,0.0
